      2.10          N: GNSS NAV DATA                        RINEX VERSION / TYPE
fic2rin                                 05/16/2019 00:19:11 PGM / RUN BY / DATE
                                                            END OF HEADER
 3 19  5 15 20  0  0.0 1.878892071545e-04-5.684341886081e-13 0.000000000000e+00
    3.900000000000e+01-5.053125000000e+01 4.954134931034e-09-1.546215098637e-01
   -2.717599272728e-06 2.158312476240e-03 4.719942808151e-06 5.153782434464e+03
    3.312000000000e+05 5.029141902924e-08-1.687305300913e+00 5.029141902924e-08
    9.624191931710e-01 2.869375000000e+02 5.807889241671e-01-8.447851886940e-09
   -3.975165581602e-10 1.000000000000e+00 2.053000000000e+03 0.000000000000e+00
    2.400000000000e+00 0.000000000000e+00 1.862645149231e-09 3.900000000000e+01
    3.240000000000e+05 4.000000000000e+00
13 19  5 15 20  0  0.0-6.351992487907e-05 1.591615728103e-12 0.000000000000e+00
    3.000000000000e+00 1.212500000000e+01 3.961950745437e-09 1.922741986699e+00
    6.817281246185e-07 3.543002996594e-03 1.228228211403e-05 5.153672260284e+03
    3.312000000000e+05 3.911554813385e-08-5.177783990001e-01-9.685754776001e-08
    9.681818937364e-01 1.472187500000e+02 1.300539133224e+00-7.747822727916e-09
   -5.928818387655e-11 1.000000000000e+00 2.053000000000e+03 0.000000000000e+00
    2.400000000000e+00 0.000000000000e+00-1.117587089539e-08 3.000000000000e+00
    3.240000000000e+05 4.000000000000e+00
10 19  5 15 20  0  0.0 4.542898386717e-05-1.080024958355e-11 0.000000000000e+00
    1.000000000000e+01-4.925000000000e+01 4.786985111430e-09-1.310865845613e+00
   -2.630054950714e-06 4.530420061201e-03 5.343928933144e-06 5.153656070709e+03
    3.312000000000e+05 6.519258022308e-08-1.690542561609e+00-7.823109626770e-08
    9.624432362297e-01 2.793437500000e+02-2.691899727423e+00-8.275344701323e-09
   -3.821587755898e-10 1.000000000000e+00 2.053000000000e+03 0.000000000000e+00
    2.400000000000e+00 0.000000000000e+00 1.862645149231e-09 1.000000000000e+01
    3.240000000000e+05 4.000000000000e+00
 7 19  5 15 20  0  0.0-2.487516030669e-05-7.503331289627e-12 0.000000000000e+00
    4.400000000000e+01 9.856250000000e+01 4.813414783761e-09 1.824515996586e-01
    5.280598998070e-06 1.266390073579e-02 6.880611181259e-06 5.153751623154e+03
    3.312000000000e+05 7.450580596924e-09 4.208090174818e-01 1.918524503708e-07
    9.559433931880e-01 2.457812500000e+02-2.467426189222e+00-8.483924818094e-09
    4.750197864808e-10 1.000000000000e+00 2.053000000000e+03 0.000000000000e+00
    2.400000000000e+00 0.000000000000e+00-1.117587089539e-08 4.400000000000e+01
    3.240000000000e+05 4.000000000000e+00
 5 19  5 15 20  0  0.0 9.103678166866e-07-1.136868377216e-13 0.000000000000e+00
    5.300000000000e+01-4.918750000000e+01 5.102712548459e-09-2.544863352711e+00
   -2.536922693253e-06 5.631383508444e-03 4.647299647331e-06 5.153682229996e+03
    3.312000000000e+05 2.793967723846e-08-1.714001373186e+00-6.891787052155e-08
    9.493033162821e-01 2.845937500000e+02 7.054643005284e-01-8.416064848597e-09
   -2.507247294057e-10 1.000000000000e+00 2.053000000000e+03 0.000000000000e+00
    2.400000000000e+00 0.000000000000e+00-1.117587089539e-08 5.300000000000e+01
    3.240000000000e+05 4.000000000000e+00
 6 19  5 15 20  0  0.0 2.046837471426e-04-1.000444171950e-11 0.000000000000e+00
    3.900000000000e+01 4.931250000000e+01 4.306607958936e-09 9.582935286577e-01
    2.456828951836e-06 1.570538152009e-03 7.877126336098e-06 5.153579193115e+03
    3.312000000000e+05-3.166496753693e-08-2.737945129559e+00-5.587935447693e-08
    9.753461663742e-01 2.353125000000e+02-1.087168920881e+00-7.979260939675e-09
    4.018024509706e-10 1.000000000000e+00 2.053000000000e+03 0.000000000000e+00
    2.400000000000e+00 0.000000000000e+00 4.190951585770e-09 3.900000000000e+01
    3.240000000000e+05 4.000000000000e+00
18 19  5 15 20  0  0.0 5.343416705728e-05 3.410605131648e-12 0.000000000000e+00
    7.000000000000e+00 5.287500000000e+01 4.959849454781e-09 5.137374052593e-01
    2.902001142502e-06 1.529674872290e-02 8.549541234970e-06 5.153701255798e+03
    3.312000000000e+05-1.601874828339e-07-2.784515189709e+00 0.000000000000e+00
    9.542374522315e-01 2.140312500000e+02 1.388507756190e+00-8.593215084758e-09
    4.089456056545e-10 1.000000000000e+00 2.053000000000e+03 0.000000000000e+00
    2.400000000000e+00 0.000000000000e+00-5.587935447693e-09 7.000000000000e+00
    3.240000000000e+05 4.000000000000e+00
14 19  5 15 20  0  0.0-8.034845814109e-05 1.591615728103e-12 0.000000000000e+00
    1.600000000000e+01 1.315625000000e+01 3.958379168095e-09 2.696473552501e+00
    6.631016731262e-07 1.059970050119e-02 1.372024416924e-05 5.153710607529e+03
    3.312000000000e+05 1.043081283569e-07-5.620830632100e-01-5.029141902924e-08
    9.607177199664e-01 1.115625000000e+02-1.940379427380e+00-7.567458072147e-09
   -1.153619481453e-10 1.000000000000e+00 2.053000000000e+03 0.000000000000e+00
    2.400000000000e+00 0.000000000000e+00-9.778887033463e-09 1.600000000000e+01
    3.240000000000e+05 4.000000000000e+00
16 19  5 15 20  0  0.0-4.032580181956e-05-2.955857780762e-12 0.000000000000e+00
    4.100000000000e+01-5.993750000000e+01 4.456614207299e-09-2.467337063864e+00
   -3.360211849213e-06 1.081258163322e-02 4.280358552933e-06 5.153570304871e+03
    3.312000000000e+05 1.043081283569e-07 1.539821454670e+00-1.993030309677e-07
    9.829856108963e-01 3.093750000000e+02 5.775190082134e-01-8.169268854267e-09
   -2.464388365953e-10 1.000000000000e+00 2.053000000000e+03 0.000000000000e+00
    2.400000000000e+00 0.000000000000e+00-1.071020960808e-08 4.100000000000e+01
    3.240000000000e+05 4.000000000000e+00
22 19  5 15 20  0  0.0-7.013957947493e-04-6.366462912410e-12 0.000000000000e+00
    5.200000000000e+01-4.612500000000e+01 5.756668359772e-09 2.134669182500e+00
   -2.479180693626e-06 7.254043244757e-03 3.600493073463e-06 5.153798511505e+03
    3.312000000000e+05 1.359730958939e-07-1.759973538717e+00 2.607703208923e-08
    9.269190414415e-01 2.873125000000e+02-1.348327561289e+00-8.734649547499e-09
   -3.593006806013e-10 1.000000000000e+00 2.053000000000e+03 0.000000000000e+00
    2.400000000000e+00 0.000000000000e+00-1.816079020500e-08 5.200000000000e+01
    3.240000000000e+05 4.000000000000e+00
11 19  5 15 20  0  0.0-6.060241721570e-04 7.958078640513e-12 0.000000000000e+00
    3.100000000000e+01 2.853125000000e+01 5.783812347571e-09 5.561654952110e-02
    1.624226570129e-06 1.658270251937e-02 1.132115721703e-05 5.153705324173e+03
    3.312000000000e+05-1.341104507446e-07 3.103675366205e+00-1.266598701477e-07
    9.097107843514e-01 1.380312500000e+02 1.885373226300e+00-8.932872089978e-09
    3.921591921473e-10 1.000000000000e+00 2.053000000000e+03 0.000000000000e+00
    2.400000000000e+00 0.000000000000e+00-1.257285475731e-08 3.100000000000e+01
    3.240000000000e+05 4.000000000000e+00
12 19  5 15 20  0  0.0 2.421801909804e-04-3.410605131648e-12 0.000000000000e+00
    3.900000000000e+01-4.668750000000e+01 4.503044712744e-09-6.043805599277e-01
   -2.287328243256e-06 7.662501302548e-03 4.323199391365e-06 5.153643383026e+03
    3.312000000000e+05-6.891787052155e-08 1.520901583427e+00 9.685754776001e-08
    9.826388334802e-01 3.133125000000e+02 1.081802817407e+00-8.321418049035e-09
   -2.335811581642e-10 1.000000000000e+00 2.053000000000e+03 0.000000000000e+00
    2.400000000000e+00 0.000000000000e+00-1.210719347000e-08 3.900000000000e+01
    3.240000000000e+05 4.000000000000e+00
32 19  5 15 20  0  0.0-8.630985394120e-05 1.682565198280e-11 0.000000000000e+00
    2.900000000000e+01 3.125000000000e-02 4.102313734976e-09-2.704722789555e+00
   -1.862645149231e-08 3.034565714188e-03 1.351721584797e-05 5.153597478867e+03
    3.312000000000e+05-2.048909664154e-08-6.481357345520e-01 2.048909664154e-08
    9.568825075973e-01 1.160312500000e+02-2.505110218707e+00-7.761751879549e-09
   -1.742929742877e-10 1.000000000000e+00 2.053000000000e+03 0.000000000000e+00
    2.400000000000e+00 0.000000000000e+00 4.656612873077e-10 2.900000000000e+01
    3.240000000000e+05 4.000000000000e+00
27 19  5 15 20  0  0.0-1.326841302216e-04-9.436007530894e-12 0.000000000000e+00
    8.000000000000e+01-5.612500000000e+01 3.928020760689e-09 2.922245644084e+00
   -2.931803464890e-06 7.106382749043e-03 1.306459307671e-05 5.153649291992e+03
    3.312000000000e+05-7.264316082001e-08 2.498554641413e+00-5.960464477539e-08
    9.787012826768e-01 1.355312500000e+02 4.861419177851e-01-7.600673741427e-09
   -1.314340461842e-10 1.000000000000e+00 2.053000000000e+03 0.000000000000e+00
    2.400000000000e+00 0.000000000000e+00 1.396983861923e-09 8.000000000000e+01
    3.240000000000e+05 4.000000000000e+00
24 19  5 15 20  0  0.0-6.612902507186e-05-4.547473508865e-13 0.000000000000e+00
    6.900000000000e+01 1.049375000000e+02 5.069854036913e-09 1.039325536835e+00
    5.343928933144e-06 8.296231622808e-03 7.130205631256e-06 5.153721223831e+03
    3.312000000000e+05-6.146728992462e-08 3.550807562530e-01 1.378357410431e-07
    9.391278871775e-01 2.298125000000e+02 6.053394749332e-01-8.547498894781e-09
    3.410856361573e-10 1.000000000000e+00 2.053000000000e+03 0.000000000000e+00
    2.400000000000e+00 0.000000000000e+00 2.793967723846e-09 6.900000000000e+01
    3.240000000000e+05 4.000000000000e+00
25 19  5 15 20  0  0.0-7.565501146019e-04-3.751665644813e-12 0.000000000000e+00
    8.000000000000e+01-4.278125000000e+01 4.801985736266e-09-9.457313443180e-01
   -2.011656761169e-06 8.450891240500e-03 3.702938556671e-06 5.153709476471e+03
    3.312000000000e+05 6.332993507385e-08 1.456683682711e+00 1.527369022369e-07
    9.700917581584e-01 3.137500000000e+02 8.972212821706e-01-8.437851470382e-09
   -2.017941198208e-10 1.000000000000e+00 2.053000000000e+03 0.000000000000e+00
    2.400000000000e+00 0.000000000000e+00 6.053596735001e-09 8.000000000000e+01
    3.240000000000e+05 4.000000000000e+00
